{"type": "FeatureCollection", "features": [ {"type": "Feature", "properties": {"norad_id": 34375, "name": "IRIDIUM 33 DEB", "group": "iridium-33-debris", "lat": 80.1598854828186, "lon": -154.81293683449866, "alt_km": 783.7572206894929, "timestamp": "2025-12-09T05:43:21.110718+00:00", "meta": {"OBJECT_NAME": "IRIDIUM 33 DEB", "OBJECT_ID": "1997-051FT", "EPOCH": "2025-12-08T14:22:11.917920", "MEAN_MOTION": 14.17981897, "ECCENTRICITY": 0.0103, "INCLINATION": 86.4327, "RA_OF_ASC_NODE": 184.3663, "ARG_OF_PERICENTER": 139.7555, "MEAN_ANOMALY": 278.6554, "EPHEMERIS_TYPE": 0, "CLASSIFICATION_TYPE": "U", "NORAD_CAT_ID": 34375, "ELEMENT_SET_NO": 999, "REV_AT_EPOCH": 86653, "BSTAR": 0.00071558, "MEAN_MOTION_DOT": 1.562e-05, "MEAN_MOTION_DDOT": 0}, "tle": {"line1": "1 34375U 97051FT  25342.59874905  .00001562  00000+0  71558-3 0  9999", "line2": "2 34375  86.4327 184.3663 0103000 139.7555 278.6554 14.17981897866534"}}, "geometry": {"type": "Point", "coordinates": [-154.81293683449866, 80.1598854828186]}}, {"type": "Feature", "properties": {"norad_id": 34376, "name": "IRIDIUM 33 DEB", "group": "iridium-33-debris", "lat": -73.48983260710136, "lon": -159.27041796329982, "alt_km": 687.743189929296, "timestamp": "2025-12-09T05:43:21.110730+00:00", "meta": {"OBJECT_NAME": "IRIDIUM 33 DEB", "OBJECT_ID": "1997-051FU", "EPOCH": "2025-12-08T12:08:43.156320", "MEAN_MOTION": 14.62473934, "ECCENTRICITY": 0.00266769, "INCLINATION": 86.2983, "RA_OF_ASC_NODE": 8.4427, "ARG_OF_PERICENTER": 181.0135, "MEAN_ANOMALY": 179.1027, "EPHEMERIS_TYPE": 0, "CLASSIFICATION_TYPE": "U", "NORAD_CAT_ID": 34376, "ELEMENT_SET_NO": 999, "REV_AT_EPOCH": 87945, "BSTAR": 0.0017835286, "MEAN_MOTION_DOT": 9.105e-05, "MEAN_MOTION_DDOT": 0}, "tle": {"line1": "1 34376U 97051FU  25342.50605505  .00009105  00000+0  17835-2 0  9997", "line2": "2 34376  86.2983   8.4427 0026676 181.0135 179.1027 14.62473934879455"}}, "geometry": {"type": "Point", "coordinates": [-159.27041796329982, -73.48983260710136]}}, {"type": "Feature", "properties": {"norad_id": 34486, "name": "IRIDIUM 33 DEB", "group": "iridium-33-debris", "lat": 52.663385120469556, "lon": 18.383024231454588, "alt_km": 572.7885205046532, "timestamp": "2025-12-09T05:43:21.110741+00:00", "meta": {"OBJECT_NAME": "IRIDIUM 33 DEB", "OBJECT_ID": "1997-051GB", "EPOCH": "2025-12-08T20:37:16.638240", "MEAN_MOTION": 14.95523221, "ECCENTRICITY": 0.0013348, "INCLINATION": 86.3939, "RA_OF_ASC_NODE": 13.8156, "ARG_OF_PERICENTER": 124.9718, "MEAN_ANOMALY": 47.7336, "EPHEMERIS_TYPE": 0, "CLASSIFICATION_TYPE": "U", "NORAD_CAT_ID": 34486, "ELEMENT_SET_NO": 999, "REV_AT_EPOCH": 88928, "BSTAR": 0.0028484, "MEAN_MOTION_DOT": 0.00031735, "MEAN_MOTION_DDOT": 0}, "tle": {"line1": "1 34486U 97051GB  25342.85922035  .00031735  00000+0  28484-2 0  9993", "line2": "2 34486  86.3939  13.8156 0013348 124.9718  47.7336 14.95523221889289"}}, "geometry": {"type": "Point", "coordinates": [18.383024231454588, 52.663385120469556]}}, {"type": "Feature", "properties": {"norad_id": 34487, "name": "IRIDIUM 33 DEB", "group": "iridium-33-debris", "lat": 8.201264646155177, "lon": 14.412890832436542, "alt_km": 764.9387364229442, "timestamp": "2025-12-09T05:43:21.110751+00:00", "meta": {"OBJECT_NAME": "IRIDIUM 33 DEB", "OBJECT_ID": "1997-051GC", "EPOCH": "2025-12-08T08:07:14.868192", "MEAN_MOTION": 14.43208344, "ECCENTRICITY": 0.00324214, "INCLINATION": 86.3438, "RA_OF_ASC_NODE": 14.2722, "ARG_OF_PERICENTER": 142.2384, "MEAN_ANOMALY": 232.9824, "EPHEMERIS_TYPE": 0, "CLASSIFICATION_TYPE": "U", "NORAD_CAT_ID": 34487, "ELEMENT_SET_NO": 999, "REV_AT_EPOCH": 88185, "BSTAR": 0.00035758899, "MEAN_MOTION_DOT": 1.229e-05, "MEAN_MOTION_DDOT": 0}, "tle": {"line1": "1 34487U 97051GC  25342.33836653  .00001229  00000+0  35759-3 0  9996", "line2": "2 34487  86.3438  14.2722 0032421 142.2384 232.9824 14.43208344881857"}}, "geometry": {"type": "Point", "coordinates": [14.412890832436542, 8.201264646155177]}}, {"type": "Feature", "properties": {"norad_id": 34488, "name": "IRIDIUM 33 DEB", "group": "iridium-33-debris", "lat": -20.166523361235306, "lon": -53.807058210846805, "alt_km": 484.33490162971884, "timestamp": "2025-12-09T05:43:21.110762+00:00", "meta": {"OBJECT_NAME": "IRIDIUM 33 DEB", "OBJECT_ID": "1997-051GD", "EPOCH": "2025-12-08T07:48:19.384704", "MEAN_MOTION": 15.2782721, "ECCENTRICITY": 0.00144949, "INCLINATION": 86.3245, "RA_OF_ASC_NODE": 307.997, "ARG_OF_PERICENTER": 58.3794, "MEAN_ANOMALY": 301.8866, "EPHEMERIS_TYPE": 0, "CLASSIFICATION_TYPE": "U", "NORAD_CAT_ID": 34488, "ELEMENT_SET_NO": 999, "REV_AT_EPOCH": 89172, "BSTAR": 0.0050658293, "MEAN_MOTION_DOT": 0.00140352, "MEAN_MOTION_DDOT": 0}, "tle": {"line1": "1 34488U 97051GD  25342.32522436  .00140352  00000+0  50658-2 0  9992", "line2": "2 34488  86.3245 307.9970 0014494  58.3794 301.8866 15.27827210891724"}}, "geometry": {"type": "Point", "coordinates": [-53.807058210846805, -20.166523361235306]}}, {"type": "Feature", "properties": {"norad_id": 34492, "name": "IRIDIUM 33 DEB", "group": "iridium-33-debris", "lat": -38.580675038896835, "lon": -26.776917974175806, "alt_km": 768.1773561955652, "timestamp": "2025-12-09T05:43:21.110773+00:00", "meta": {"OBJECT_NAME": "IRIDIUM 33 DEB", "OBJECT_ID": "1997-051GH", "EPOCH": "2025-12-07T23:50:44.784960", "MEAN_MOTION": 14.25534668, "ECCENTRICITY": 0.0189621, "INCLINATION": 86.4724, "RA_OF_ASC_NODE": 336.5463, "ARG_OF_PERICENTER": 253.6464, "MEAN_ANOMALY": 161.0806, "EPHEMERIS_TYPE": 0, "CLASSIFICATION_TYPE": "U", "NORAD_CAT_ID": 34492, "ELEMENT_SET_NO": 999, "REV_AT_EPOCH": 84991, "BSTAR": 0.0068533726, "MEAN_MOTION_DOT": 0.00019616, "MEAN_MOTION_DDOT": 0}, "tle": {"line1": "1 34492U 97051GH  25341.99357390  .00019616  00000+0  68534-2 0  9994", "line2": "2 34492  86.4724 336.5463 0189621 253.6464 161.0806 14.25534668849919"}}, "geometry": {"type": "Point", "coordinates": [-26.776917974175806, -38.580675038896835]}}, {"type": "Feature", "properties": {"norad_id": 34497, "name": "IRIDIUM 33 DEB", "group": "iridium-33-debris", "lat": 4.755726872302559, "lon": -126.41272130837014, "alt_km": 859.4655117265957, "timestamp": "2025-12-09T05:43:21.110783+00:00", "meta": {"OBJECT_NAME": "IRIDIUM 33 DEB", "OBJECT_ID": "1997-051GN", "EPOCH": "2025-12-08T05:36:30.454848", "MEAN_MOTION": 14.27433857, "ECCENTRICITY": 0.00792669, "INCLINATION": 86.2781, "RA_OF_ASC_NODE": 54.3266, "ARG_OF_PERICENTER": 354.2573, "MEAN_ANOMALY": 60.9681, "EPHEMERIS_TYPE": 0, "CLASSIFICATION_TYPE": "U", "NORAD_CAT_ID": 34497, "ELEMENT_SET_NO": 999, "REV_AT_EPOCH": 86819, "BSTAR": 0.00099948943, "MEAN_MOTION_DOT": 2.553e-05, "MEAN_MOTION_DDOT": 0}, "tle": {"line1": "1 34497U 97051GN  25342.23368582  .00002553  00000+0  99949-3 0  9999", "line2": "2 34497  86.2781  54.3266 0079266 354.2573  60.9681 14.27433857868192"}}, "geometry": {"type": "Point", "coordinates": [-126.41272130837014, 4.755726872302559]}}, {"type": "Feature", "properties": {"norad_id": 34508, "name": "IRIDIUM 33 DEB", "group": "iridium-33-debris", "lat": -15.560370578151884, "lon": -74.8596639549773, "alt_km": 722.5821979640505, "timestamp": "2025-12-09T05:43:21.110794+00:00", "meta": {"OBJECT_NAME": "IRIDIUM 33 DEB", "OBJECT_ID": "1997-051GZ", "EPOCH": "2025-12-08T08:46:53.155200", "MEAN_MOTION": 14.38366124, "ECCENTRICITY": 0.00658306, "INCLINATION": 86.3707, "RA_OF_ASC_NODE": 104.4975, "ARG_OF_PERICENTER": 187.0379, "MEAN_ANOMALY": 172.9903, "EPHEMERIS_TYPE": 0, "CLASSIFICATION_TYPE": "U", "NORAD_CAT_ID": 34508, "ELEMENT_SET_NO": 999, "REV_AT_EPOCH": 87246, "BSTAR": 0.0022360779, "MEAN_MOTION_DOT": 7.006e-05, "MEAN_MOTION_DDOT": 0}, "tle": {"line1": "1 34508U 97051GZ  25342.36589300  .00007006  00000+0  22361-2 0  9990", "line2": "2 34508  86.3707 104.4975 0065830 187.0379 172.9903 14.38366124872466"}}, "geometry": {"type": "Point", "coordinates": [-74.8596639549773, -15.560370578151884]}}, {"type": "Feature", "properties": {"norad_id": 34521, "name": "IRIDIUM 33 DEB", "group": "iridium-33-debris", "lat": 58.95322864657674, "lon": 38.12644649484648, "alt_km": 677.6982885341404, "timestamp": "2025-12-09T05:43:21.110805+00:00", "meta": {"OBJECT_NAME": "IRIDIUM 33 DEB", "OBJECT_ID": "1997-051HN", "EPOCH": "2025-12-08T14:40:57.220032", "MEAN_MOTION": 14.63311366, "ECCENTRICITY": 0.0001172, "INCLINATION": 86.3799, "RA_OF_ASC_NODE": 32.3653, "ARG_OF_PERICENTER": 244.4275, "MEAN_ANOMALY": 115.6816, "EPHEMERIS_TYPE": 0, "CLASSIFICATION_TYPE": "U", "NORAD_CAT_ID": 34521, "ELEMENT_SET_NO": 999, "REV_AT_EPOCH": 88412, "BSTAR": 0.0013532, "MEAN_MOTION_DOT": 7.004e-05, "MEAN_MOTION_DDOT": 0}, "tle": {"line1": "1 34521U 97051HN  25342.61177338  .00007004  00000+0  13532-2 0  9995", "line2": "2 34521  86.3799  32.3653 0001172 244.4275 115.6816 14.63311366884125"}}, "geometry": {"type": "Point", "coordinates": [38.12644649484648, 58.95322864657674]}}, {"type": "Feature", "properties": {"norad_id": 34525, "name": "IRIDIUM 33 DEB", "group": "iridium-33-debris", "lat": 44.23926239539471, "lon": -135.20298913351306, "alt_km": 741.3321847216002, "timestamp": "2025-12-09T05:43:21.110815+00:00", "meta": {"OBJECT_NAME": "IRIDIUM 33 DEB", "OBJECT_ID": "1997-051HS", "EPOCH": "2025-12-08T10:52:50.630592", "MEAN_MOTION": 14.42890463, "ECCENTRICITY": 0.00066346, "INCLINATION": 86.373, "RA_OF_ASC_NODE": 48.6732, "ARG_OF_PERICENTER": 105.0702, "MEAN_ANOMALY": 275.0516, "EPHEMERIS_TYPE": 0, "CLASSIFICATION_TYPE": "U", "NORAD_CAT_ID": 34525, "ELEMENT_SET_NO": 999, "REV_AT_EPOCH": 88026, "BSTAR": 0.00067150553, "MEAN_MOTION_DOT": 2.262e-05, "MEAN_MOTION_DDOT": 0}, "tle": {"line1": "1 34525U 97051HS  25342.45336378  .00002262  00000+0  67151-3 0  9990", "line2": "2 34525  86.3730  48.6732 0006634 105.0702 275.0516 14.42890463880263"}}, "geometry": {"type": "Point", "coordinates": [-135.20298913351306, 44.23926239539471]}}]}